{"type": "FeatureCollection", "features": [ {"type": "Feature", "properties": {"norad_id": 66437, "name": "STARLINK-35474", "group": "last-30-days", "lat": 38.549806311329256, "lon": -151.7664503110398, "alt_km": 410.2611407764098, "timestamp": "2025-12-05T22:40:47.340981+00:00", "meta": {"OBJECT_NAME": "STARLINK-35474", "OBJECT_ID": "2025-259R", "EPOCH": "2025-12-05T00:00:02.999808", "MEAN_MOTION": 15.50616065, "ECCENTRICITY": 0.00015318, "INCLINATION": 43.0007, "RA_OF_ASC_NODE": 92.5341, "ARG_OF_PERICENTER": 273.3566, "MEAN_ANOMALY": 319.5146, "EPHEMERIS_TYPE": 0, "CLASSIFICATION_TYPE": "U", "NORAD_CAT_ID": 66437, "ELEMENT_SET_NO": 999, "REV_AT_EPOCH": 503, "BSTAR": -0.0013836442, "MEAN_MOTION_DOT": -0.00080788, "MEAN_MOTION_DDOT": 0}, "tle": {"line1": "1 66437U 25259R   25339.00003472 -.00080788  00000+0 -13836-2 0  9992", "line2": "2 66437  43.0007  92.5341 0001531 273.3566 319.5146 15.50616065  5030"}}, "geometry": {"type": "Point", "coordinates": [-151.7664503110398, 38.549806311329256]}}, {"type": "Feature", "properties": {"norad_id": 66438, "name": "STARLINK-34681", "group": "last-30-days", "lat": 37.8385161209887, "lon": -149.4636477552269, "alt_km": 410.2507096358995, "timestamp": "2025-12-05T22:40:47.340993+00:00", "meta": {"OBJECT_NAME": "STARLINK-34681", "OBJECT_ID": "2025-259S", "EPOCH": "2025-12-05T00:00:02.999808", "MEAN_MOTION": 15.50607171, "ECCENTRICITY": 0.00015784, "INCLINATION": 43.0007, "RA_OF_ASC_NODE": 92.5293, "ARG_OF_PERICENTER": 264.8555, "MEAN_ANOMALY": 329.932, "EPHEMERIS_TYPE": 0, "CLASSIFICATION_TYPE": "U", "NORAD_CAT_ID": 66438, "ELEMENT_SET_NO": 999, "REV_AT_EPOCH": 492, "BSTAR": -0.0010505396, "MEAN_MOTION_DOT": -0.00061551, "MEAN_MOTION_DDOT": 0}, "tle": {"line1": "1 66438U 25259S   25339.00003472 -.00061551  00000+0 -10505-2 0  9990", "line2": "2 66438  43.0007  92.5293 0001578 264.8555 329.9320 15.50607171  4925"}}, "geometry": {"type": "Point", "coordinates": [-149.4636477552269, 37.8385161209887]}}, {"type": "Feature", "properties": {"norad_id": 66439, "name": "STARLINK-35327", "group": "last-30-days", "lat": 39.80777610411565, "lon": -156.4053280467797, "alt_km": 410.0433709286608, "timestamp": "2025-12-05T22:40:47.341008+00:00", "meta": {"OBJECT_NAME": "STARLINK-35327", "OBJECT_ID": "2025-259T", "EPOCH": "2025-12-05T00:00:02.999808", "MEAN_MOTION": 15.50608503, "ECCENTRICITY": 0.00016148, "INCLINATION": 43.0006, "RA_OF_ASC_NODE": 92.5456, "ARG_OF_PERICENTER": 267.7138, "MEAN_ANOMALY": 321.3225, "EPHEMERIS_TYPE": 0, "CLASSIFICATION_TYPE": "U", "NORAD_CAT_ID": 66439, "ELEMENT_SET_NO": 999, "REV_AT_EPOCH": 503, "BSTAR": -0.0011237973, "MEAN_MOTION_DOT": -0.00065788, "MEAN_MOTION_DDOT": 0}, "tle": {"line1": "1 66439U 25259T   25339.00003472 -.00065788  00000+0 -11238-2 0  9991", "line2": "2 66439  43.0006  92.5456 0001614 267.7138 321.3225 15.50608503  5039"}}, "geometry": {"type": "Point", "coordinates": [-156.4053280467797, 39.80777610411565]}}, {"type": "Feature", "properties": {"norad_id": 66440, "name": "STARLINK-35405", "group": "last-30-days", "lat": 37.09435125147473, "lon": -147.23836726422664, "alt_km": 410.3322134796854, "timestamp": "2025-12-05T22:40:47.341019+00:00", "meta": {"OBJECT_NAME": "STARLINK-35405", "OBJECT_ID": "2025-259U", "EPOCH": "2025-12-05T00:00:02.999808", "MEAN_MOTION": 15.50594995, "ECCENTRICITY": 0.00014967, "INCLINATION": 43.0006, "RA_OF_ASC_NODE": 92.5251, "ARG_OF_PERICENTER": 271.4204, "MEAN_ANOMALY": 325.2944, "EPHEMERIS_TYPE": 0, "CLASSIFICATION_TYPE": "U", "NORAD_CAT_ID": 66440, "ELEMENT_SET_NO": 999, "REV_AT_EPOCH": 503, "BSTAR": -0.00089389837, "MEAN_MOTION_DOT": -0.00052462, "MEAN_MOTION_DDOT": 0}, "tle": {"line1": "1 66440U 25259U   25339.00003472 -.00052462  00000+0 -89390-3 0  9993", "line2": "2 66440  43.0006  92.5251 0001496 271.4204 325.2944 15.50594995  5038"}}, "geometry": {"type": "Point", "coordinates": [-147.23836726422664, 37.09435125147473]}}, {"type": "Feature", "properties": {"norad_id": 66441, "name": "STARLINK-35426", "group": "last-30-days", "lat": 36.31001240177917, "lon": -145.05987995454092, "alt_km": 410.5282788501763, "timestamp": "2025-12-05T22:40:47.341029+00:00", "meta": {"OBJECT_NAME": "STARLINK-35426", "OBJECT_ID": "2025-259V", "EPOCH": "2025-12-05T00:00:02.999808", "MEAN_MOTION": 15.50594833, "ECCENTRICITY": 0.00015885, "INCLINATION": 43.0007, "RA_OF_ASC_NODE": 92.5201, "ARG_OF_PERICENTER": 275.4914, "MEAN_ANOMALY": 323.1388, "EPHEMERIS_TYPE": 0, "CLASSIFICATION_TYPE": "U", "NORAD_CAT_ID": 66441, "ELEMENT_SET_NO": 999, "REV_AT_EPOCH": 503, "BSTAR": -0.00089023433, "MEAN_MOTION_DOT": -0.0005225, "MEAN_MOTION_DDOT": 0}, "tle": {"line1": "1 66441U 25259V   25339.00003472 -.00052250  00000+0 -89023-3 0  9992", "line2": "2 66441  43.0007  92.5201 0001588 275.4914 323.1388 15.50594833  5039"}}, "geometry": {"type": "Point", "coordinates": [-145.05987995454092, 36.31001240177917]}}, {"type": "Feature", "properties": {"norad_id": 66442, "name": "STARLINK-34724", "group": "last-30-days", "lat": 35.500713452518866, "lon": -142.96084930683392, "alt_km": 410.62850883227384, "timestamp": "2025-12-05T22:40:47.341040+00:00", "meta": {"OBJECT_NAME": "STARLINK-34724", "OBJECT_ID": "2025-259W", "EPOCH": "2025-12-05T00:00:02.999808", "MEAN_MOTION": 15.50621701, "ECCENTRICITY": 0.00014465, "INCLINATION": 43.0006, "RA_OF_ASC_NODE": 92.5157, "ARG_OF_PERICENTER": 268.1024, "MEAN_ANOMALY": 332.4356, "EPHEMERIS_TYPE": 0, "CLASSIFICATION_TYPE": "U", "NORAD_CAT_ID": 66442, "ELEMENT_SET_NO": 999, "REV_AT_EPOCH": 503, "BSTAR": -0.0014917954, "MEAN_MOTION_DOT": -0.00087024, "MEAN_MOTION_DDOT": 0}, "tle": {"line1": "1 66442U 25259W   25339.00003472 -.00087024  00000+0 -14918-2 0  9990", "line2": "2 66442  43.0006  92.5157 0001446 268.1024 332.4356 15.50621701  5036"}}, "geometry": {"type": "Point", "coordinates": [-142.96084930683392, 35.500713452518866]}}, {"type": "Feature", "properties": {"norad_id": 66443, "name": "STARLINK-35219", "group": "last-30-days", "lat": 34.640071135657095, "lon": -140.86796236276052, "alt_km": 410.63517847659296, "timestamp": "2025-12-05T22:40:47.341051+00:00", "meta": {"OBJECT_NAME": "STARLINK-35219", "OBJECT_ID": "2025-259X", "EPOCH": "2025-12-05T00:00:02.999808", "MEAN_MOTION": 15.50617334, "ECCENTRICITY": 0.00014133, "INCLINATION": 43.0007, "RA_OF_ASC_NODE": 92.5108, "ARG_OF_PERICENTER": 259.8778, "MEAN_ANOMALY": 342.5786, "EPHEMERIS_TYPE": 0, "CLASSIFICATION_TYPE": "U", "NORAD_CAT_ID": 66443, "ELEMENT_SET_NO": 999, "REV_AT_EPOCH": 492, "BSTAR": -0.0014018562, "MEAN_MOTION_DOT": -0.00081839, "MEAN_MOTION_DDOT": 0}, "tle": {"line1": "1 66443U 25259X   25339.00003472 -.00081839  00000+0 -14019-2 0  9991", "line2": "2 66443  43.0007  92.5108 0001413 259.8778 342.5786 15.50617334  4924"}}, "geometry": {"type": "Point", "coordinates": [-140.86796236276052, 34.640071135657095]}}, {"type": "Feature", "properties": {"norad_id": 66444, "name": "STARLINK-35360", "group": "last-30-days", "lat": 31.848921878457045, "lon": -134.84017715060142, "alt_km": 411.0318693638237, "timestamp": "2025-12-05T22:40:47.341061+00:00", "meta": {"OBJECT_NAME": "STARLINK-35360", "OBJECT_ID": "2025-259Y", "EPOCH": "2025-12-05T00:00:02.999808", "MEAN_MOTION": 15.50610451, "ECCENTRICITY": 0.00015243, "INCLINATION": 43.0006, "RA_OF_ASC_NODE": 92.4954, "ARG_OF_PERICENTER": 260.2703, "MEAN_ANOMALY": 347.9379, "EPHEMERIS_TYPE": 0, "CLASSIFICATION_TYPE": "U", "NORAD_CAT_ID": 66444, "ELEMENT_SET_NO": 999, "REV_AT_EPOCH": 503, "BSTAR": -0.0011957104, "MEAN_MOTION_DOT": -0.00069943, "MEAN_MOTION_DDOT": 0}, "tle": {"line1": "1 66444U 25259Y   25339.00003472 -.00069943  00000+0 -11957-2 0  9992", "line2": "2 66444  43.0006  92.4954 0001524 260.2703 347.9379 15.50610451  5032"}}, "geometry": {"type": "Point", "coordinates": [-134.84017715060142, 31.848921878457045]}}, {"type": "Feature", "properties": {"norad_id": 66445, "name": "STARLINK-34698", "group": "last-30-days", "lat": 33.74358609911341, "lon": -138.81876822740224, "alt_km": 410.777546367005, "timestamp": "2025-12-05T22:40:47.341071+00:00", "meta": {"OBJECT_NAME": "STARLINK-34698", "OBJECT_ID": "2025-259Z", "EPOCH": "2025-12-05T00:00:02.999808", "MEAN_MOTION": 15.50617368, "ECCENTRICITY": 0.00016044, "INCLINATION": 43.0007, "RA_OF_ASC_NODE": 92.5049, "ARG_OF_PERICENTER": 254.249, "MEAN_ANOMALY": 350.1254, "EPHEMERIS_TYPE": 0, "CLASSIFICATION_TYPE": "U", "NORAD_CAT_ID": 66445, "ELEMENT_SET_NO": 999, "REV_AT_EPOCH": 492, "BSTAR": -0.0013779176, "MEAN_MOTION_DOT": -0.00080463, "MEAN_MOTION_DDOT": 0}, "tle": {"line1": "1 66445U 25259Z   25339.00003472 -.00080463  00000+0 -13779-2 0  9997", "line2": "2 66445  43.0007  92.5049 0001604 254.2490 350.1254 15.50617368  4924"}}, "geometry": {"type": "Point", "coordinates": [-138.81876822740224, 33.74358609911341]}}, {"type": "Feature", "properties": {"norad_id": 66446, "name": "STARLINK-34986", "group": "last-30-days", "lat": 32.802000354333984, "lon": -136.78713784845135, "alt_km": 411.03772669938917, "timestamp": "2025-12-05T22:40:47.341085+00:00", "meta": {"OBJECT_NAME": "STARLINK-34986", "OBJECT_ID": "2025-259AA", "EPOCH": "2025-12-05T00:00:02.999808", "MEAN_MOTION": 15.50593285, "ECCENTRICITY": 0.0001686, "INCLINATION": 43.0007, "RA_OF_ASC_NODE": 92.5, "ARG_OF_PERICENTER": 269.6618, "MEAN_ANOMALY": 336.639, "EPHEMERIS_TYPE": 0, "CLASSIFICATION_TYPE": "U", "NORAD_CAT_ID": 66446, "ELEMENT_SET_NO": 999, "REV_AT_EPOCH": 503, "BSTAR": -0.00086943847, "MEAN_MOTION_DOT": -0.00051043, "MEAN_MOTION_DDOT": 0}, "tle": {"line1": "1 66446U 25259AA  25339.00003472 -.00051043  00000+0 -86944-3 0  9995", "line2": "2 66446  43.0007  92.5000 0001686 269.6618 336.6390 15.50593285  5038"}}, "geometry": {"type": "Point", "coordinates": [-136.78713784845135, 32.802000354333984]}}]}